start=new Date('2023-05-29T00:00:00.000Z').valueOf();
sats=[{"DECAY_DATE":null,"FILE":"3919546","SITE":"AFETR","EPOCH":"2023-05-28T20:59:05.318304","INCLINATION":"53.0523","REF_FRAME":"TEME","RA_OF_ASC_NODE":"211.7880","OBJECT_TYPE":"PAYLOAD","NORAD_CAT_ID":"46362","OBJECT_NAME":"STARLINK-1726","SEMIMAJOR_AXIS":"6925.328","COUNTRY_CODE":"US","CENTER_NAME":"EARTH","MEAN_ANOMALY":"278.1731","ELEMENT_SET_NO":"999","ARG_OF_PERICENTER":"81.9382","ECCENTRICITY":"0.00010970","TLE_LINE2":"2 46362  53.0523 211.7880 0001097  81.9382 278.1731 15.06406736151831","MEAN_MOTION":"15.06406736","EPHEMERIS_TYPE":"0","OBJECT_ID":"2020-062AP","TIME_SYSTEM":"UTC","MEAN_MOTION_DOT":"0.00001900","LAUNCH_DATE":"2020-09-03","PERIAPSIS":"546.433","TLE_LINE1":"1 46362U 20062AP  23148.87436711  .00001900  00000-0  14635-3 0  9998","APOAPSIS":"547.953","RCS_SIZE":"LARGE","CLASSIFICATION_TYPE":"U","PERIOD":"95.592","MEAN_MOTION_DDOT":"0.0000000000000","BSTAR":"0.00014635000000","GP_ID":"232703434","REV_AT_EPOCH":"15183","MEAN_ELEMENT_THEORY":"SGP4"},{"MEAN_ANOMALY":"278.0615","ELEMENT_SET_NO":"999","ARG_OF_PERICENTER":"82.0485","TLE_LINE2":"2 46363  53.0529 211.8195 0000986  82.0485 278.0615 15.06405986151836","MEAN_MOTION":"15.06405986","OBJECT_ID":"2020-062AQ","EPHEMERIS_TYPE":"0","ECCENTRICITY":"0.00009860","TIME_SYSTEM":"UTC","SITE":"AFETR","DECAY_DATE":null,"FILE":"3919546","EPOCH":"2023-05-28T20:47:07.261728","INCLINATION":"53.0529","OBJECT_TYPE":"PAYLOAD","RA_OF_ASC_NODE":"211.8195","NORAD_CAT_ID":"46363","REF_FRAME":"TEME","SEMIMAJOR_AXIS":"6925.330","OBJECT_NAME":"STARLINK-1739","CENTER_NAME":"EARTH","COUNTRY_CODE":"US","RCS_SIZE":"LARGE","CLASSIFICATION_TYPE":"U","PERIOD":"95.592","MEAN_MOTION_DDOT":"0.0000000000000","BSTAR":"0.00016037000000","MEAN_ELEMENT_THEORY":"SGP4","REV_AT_EPOCH":"15183","GP_ID":"232704686","MEAN_MOTION_DOT":"0.00002109","LAUNCH_DATE":"2020-09-03","PERIAPSIS":"546.512","APOAPSIS":"547.878","TLE_LINE1":"1 46363U 20062AQ  23148.86605627  .00002109  00000-0  16037-3 0  9992"},{"LAUNCH_DATE":"2020-09-03","PERIAPSIS":"546.619","APOAPSIS":"547.831","TLE_LINE1":"1 46364U 20062AR  23148.40448058 -.00000454  00000-0 -11579-4 0  9996","MEAN_MOTION_DOT":"-0.00000454","BSTAR":"-0.00001157900000","MEAN_ELEMENT_THEORY":"SGP4","REV_AT_EPOCH":"15203","GP_ID":"232704436","RCS_SIZE":"LARGE","CLASSIFICATION_TYPE":"U","PERIOD":"95.592","MEAN_MOTION_DDOT":"0.0000000000000","RA_OF_ASC_NODE":"194.4082","OBJECT_TYPE":"PAYLOAD","NORAD_CAT_ID":"46364","REF_FRAME":"TEME","SEMIMAJOR_AXIS":"6925.360","OBJECT_NAME":"STARLINK-1763","COUNTRY_CODE":"US","CENTER_NAME":"EARTH","SITE":"AFETR","DECAY_DATE":null,"FILE":"3919546","EPOCH":"2023-05-28T09:42:27.122112","INCLINATION":"53.0530","MEAN_MOTION":"15.06396171","TLE_LINE2":"2 46364  53.0530 194.4082 0000875  92.1944 267.9145 15.06396171152032","OBJECT_ID":"2020-062AR","EPHEMERIS_TYPE":"0","ECCENTRICITY":"0.00008750","TIME_SYSTEM":"UTC","MEAN_ANOMALY":"267.9145","ELEMENT_SET_NO":"999","ARG_OF_PERICENTER":"92.1944"},{"MEAN_MOTION_DOT":"0.00003966","APOAPSIS":"547.849","TLE_LINE1":"1 46365U 20062AS  23148.91123174  .00003966  00000-0  28493-3 0  9993","LAUNCH_DATE":"2020-09-03","PERIAPSIS":"546.520","PERIOD":"95.592","MEAN_MOTION_DDOT":"0.0000000000000","RCS_SIZE":"LARGE","CLASSIFICATION_TYPE":"U","MEAN_ELEMENT_THEORY":"SGP4","REV_AT_EPOCH":"15183","GP_ID":"232703184","BSTAR":"0.00028493000000","EPOCH":"2023-05-28T21:52:10.422336","INCLINATION":"53.0529","SITE":"AFETR","DECAY_DATE":null,"FILE":"3919546","SEMIMAJOR_AXIS":"6925.319","OBJECT_NAME":"STARLINK-1550","CENTER_NAME":"EARTH","COUNTRY_CODE":"US","RA_OF_ASC_NODE":"211.6244","OBJECT_TYPE":"PAYLOAD","NORAD_CAT_ID":"46365","REF_FRAME":"TEME","ARG_OF_PERICENTER":"63.3348","MEAN_ANOMALY":"296.7739","ELEMENT_SET_NO":"999","TIME_SYSTEM":"UTC","TLE_LINE2":"2 46365  53.0529 211.6244 0000959  63.3348 296.7739 15.06409515151837","MEAN_MOTION":"15.06409515","OBJECT_ID":"2020-062AS","EPHEMERIS_TYPE":"0","ECCENTRICITY":"0.00009590"},{"MEAN_MOTION_DOT":"0.00002726","TLE_LINE1":"1 46366U 20062AT  23148.90017313  .00002726  00000-0  20179-3 0  9996","APOAPSIS":"548.082","LAUNCH_DATE":"2020-09-03","PERIAPSIS":"546.318","MEAN_MOTION_DDOT":"0.0000000000000","PERIOD":"95.592","CLASSIFICATION_TYPE":"U","RCS_SIZE":"LARGE","REV_AT_EPOCH":"15183","GP_ID":"232703935","MEAN_ELEMENT_THEORY":"SGP4","BSTAR":"0.00020179000000","INCLINATION":"53.0527","EPOCH":"2023-05-28T21:36:14.958432","FILE":"3919546","DECAY_DATE":null,"SITE":"AFETR","CENTER_NAME":"EARTH","COUNTRY_CODE":"US","OBJECT_NAME":"STARLINK-1651","SEMIMAJOR_AXIS":"6925.335","REF_FRAME":"TEME","NORAD_CAT_ID":"46366","RA_OF_ASC_NODE":"211.6725","OBJECT_TYPE":"PAYLOAD","ARG_OF_PERICENTER":"87.1127","ELEMENT_SET_NO":"999","MEAN_ANOMALY":"273.0008","TIME_SYSTEM":"UTC","ECCENTRICITY":"0.00012740","EPHEMERIS_TYPE":"0","OBJECT_ID":"2020-062AT","MEAN_MOTION":"15.06404478","TLE_LINE2":"2 46366  53.0527 211.6725 0001274  87.1127 273.0008 15.06404478151830"},{"MEAN_ANOMALY":"255.4428","ELEMENT_SET_NO":"999","ARG_OF_PERICENTER":"104.6694","MEAN_MOTION":"15.06419983","TLE_LINE2":"2 46368  53.0527 238.1623 0001202 104.6694 255.4428 15.06419983151442","EPHEMERIS_TYPE":"0","OBJECT_ID":"2020-062AV","ECCENTRICITY":"0.00012020","TIME_SYSTEM":"UTC","SITE":"AFETR","FILE":"3919546","DECAY_DATE":null,"INCLINATION":"53.0527","EPOCH":"2023-05-28T13:36:31.467168","RA_OF_ASC_NODE":"238.1623","OBJECT_TYPE":"PAYLOAD","NORAD_CAT_ID":"46368","REF_FRAME":"TEME","SEMIMAJOR_AXIS":"6925.287","OBJECT_NAME":"STARLINK-1658","COUNTRY_CODE":"US","CENTER_NAME":"EARTH","RCS_SIZE":"LARGE","CLASSIFICATION_TYPE":"U","PERIOD":"95.591","MEAN_MOTION_DDOT":"0.0000000000000","BSTAR":"0.00135520000000","MEAN_ELEMENT_THEORY":"SGP4","REV_AT_EPOCH":"15144","GP_ID":"232704186","MEAN_MOTION_DOT":"0.00019973","LAUNCH_DATE":"2020-09-03","PERIAPSIS":"546.320","APOAPSIS":"547.985","TLE_LINE1":"1 46368U 20062AV  23148.56703087  .00019973  00000-0  13552-2 0  9998"},{"CLASSIFICATION_TYPE":"U","RCS_SIZE":"LARGE","MEAN_MOTION_DDOT":"0.0000000000000","PERIOD":"95.591","BSTAR":"0.00143390000000","MEAN_ELEMENT_THEORY":"SGP4","GP_ID":"232704937","REV_AT_EPOCH":"15143","MEAN_MOTION_DOT":"0.00021152","LAUNCH_DATE":"2020-09-03","PERIAPSIS":"546.635","APOAPSIS":"547.674","TLE_LINE1":"1 46370U 20062AX  23148.53111903  .00021152  00000-0  14339-2 0  9994","ELEMENT_SET_NO":"999","MEAN_ANOMALY":"255.0807","ARG_OF_PERICENTER":"105.0265","EPHEMERIS_TYPE":"0","OBJECT_ID":"2020-062AX","MEAN_MOTION":"15.06419185","TLE_LINE2":"2 46370  53.0525 238.3336 0000750 105.0265 255.0807 15.06419185151432","ECCENTRICITY":"0.00007500","TIME_SYSTEM":"UTC","SITE":"AFETR","FILE":"3919546","DECAY_DATE":null,"EPOCH":"2023-05-28T12:44:48.684192","INCLINATION":"53.0525","NORAD_CAT_ID":"46370","RA_OF_ASC_NODE":"238.3336","OBJECT_TYPE":"PAYLOAD","REF_FRAME":"TEME","COUNTRY_CODE":"US","CENTER_NAME":"EARTH","OBJECT_NAME":"STARLINK-1670","SEMIMAJOR_AXIS":"6925.290"},{"SITE":"AFETR","DECAY_DATE":null,"FILE":"3919546","INCLINATION":"53.0531","EPOCH":"2023-05-28T12:34:11.733888","NORAD_CAT_ID":"46371","RA_OF_ASC_NODE":"238.3634","OBJECT_TYPE":"PAYLOAD","REF_FRAME":"TEME","CENTER_NAME":"EARTH","COUNTRY_CODE":"US","OBJECT_NAME":"STARLINK-1688","SEMIMAJOR_AXIS":"6925.295","ELEMENT_SET_NO":"999","MEAN_ANOMALY":"265.6365","ARG_OF_PERICENTER":"94.4752","OBJECT_ID":"2020-062AY","EPHEMERIS_TYPE":"0","TLE_LINE2":"2 46371  53.0531 238.3634 0001121  94.4752 265.6365 15.06417384151431","MEAN_MOTION":"15.06417384","ECCENTRICITY":"0.00011210","TIME_SYSTEM":"UTC","MEAN_MOTION_DOT":"0.00016753","LAUNCH_DATE":"2020-09-03","PERIAPSIS":"546.384","APOAPSIS":"547.937","TLE_LINE1":"1 46371U 20062AY  23148.52374692  .00016753  00000-0  11404-2 0  9991","CLASSIFICATION_TYPE":"U","RCS_SIZE":"LARGE","MEAN_MOTION_DDOT":"0.0000000000000","PERIOD":"95.591","BSTAR":"0.00114040000000","MEAN_ELEMENT_THEORY":"SGP4","REV_AT_EPOCH":"15143","GP_ID":"232703685"},{"APOAPSIS":"547.670","TLE_LINE1":"1 46372U 20062AZ  23148.59931045  .00015308  00000-0  10441-2 0  9995","LAUNCH_DATE":"2020-09-03","PERIAPSIS":"546.703","MEAN_MOTION_DOT":"0.00015308","MEAN_ELEMENT_THEORY":"SGP4","GP_ID":"232703435","REV_AT_EPOCH":"15116","BSTAR":"0.00104410000000","PERIOD":"95.592","MEAN_MOTION_DDOT":"0.0000000000000","RCS_SIZE":"LARGE","CLASSIFICATION_TYPE":"U","SEMIMAJOR_AXIS":"6925.321","OBJECT_NAME":"STARLINK-1689","COUNTRY_CODE":"US","CENTER_NAME":"EARTH","RA_OF_ASC_NODE":"258.0252","OBJECT_TYPE":"PAYLOAD","NORAD_CAT_ID":"46372","REF_FRAME":"TEME","EPOCH":"2023-05-28T14:23:00.422880","INCLINATION":"53.0539","SITE":"AFETR","FILE":"3919546","DECAY_DATE":null,"TIME_SYSTEM":"UTC","MEAN_MOTION":"15.06408935","TLE_LINE2":"2 46372  53.0539 258.0252 0000698  95.7361 264.3708 15.06408935151162","EPHEMERIS_TYPE":"0","OBJECT_ID":"2020-062AZ","ECCENTRICITY":"0.00006980","ARG_OF_PERICENTER":"95.7361","MEAN_ANOMALY":"264.3708","ELEMENT_SET_NO":"999"},{"TLE_LINE1":"1 46374U 20062BB  23148.41409944  .00000730  00000-0  67933-4 0  9999","APOAPSIS":"548.174","PERIAPSIS":"546.267","LAUNCH_DATE":"2020-09-03","MEAN_MOTION_DOT":"0.00000730","GP_ID":"232704687","REV_AT_EPOCH":"15211","MEAN_ELEMENT_THEORY":"SGP4","BSTAR":"0.00006793300000","PERIOD":"95.592","MEAN_MOTION_DDOT":"0.0000000000000","RCS_SIZE":"LARGE","CLASSIFICATION_TYPE":"U","OBJECT_NAME":"STARLINK-1711","SEMIMAJOR_AXIS":"6925.356","COUNTRY_CODE":"US","CENTER_NAME":"EARTH","REF_FRAME":"TEME","RA_OF_ASC_NODE":"188.8621","OBJECT_TYPE":"PAYLOAD","NORAD_CAT_ID":"46374","EPOCH":"2023-05-28T09:56:18.191616","INCLINATION":"53.0542","FILE":"3919546","DECAY_DATE":null,"SITE":"AFETR","TIME_SYSTEM":"UTC","ECCENTRICITY":"0.00013770","TLE_LINE2":"2 46374  53.0542 188.8621 0001377  80.5762 279.5382 15.06397686152112","MEAN_MOTION":"15.06397686","EPHEMERIS_TYPE":"0","OBJECT_ID":"2020-062BB","ARG_OF_PERICENTER":"80.5762","MEAN_ANOMALY":"279.5382","ELEMENT_SET_NO":"999"}];
